[
    {
        "Altitude(m)": 704566.3482126709,
        "Argument of Periapsis(deg)": 0.0011390121186627068,
        "Eccentricity": 0.0,
        "Inclination(deg)": 45.0,
        "Latitude(deg)": 31.778504039896323,
        "Longitude(deg)": 141.91290544607267,
        "Mean Anomaly(deg)": 132.06242166474806,
        "RAAN(deg)": 99.99892480585419,
        "Satellite Name": "Constellation 1 448",
        "Satellite Number": 448,
        "Semi-Major Axis(m)": 7083131.272910544,
        "Time(s)": 19
    },
    {
        "Altitude(m)": 704560.4482211971,
        "Argument of Periapsis(deg)": 0.0011989601249081123,
        "Eccentricity": 0.0,
        "Inclination(deg)": 45.0,
        "Latitude(deg)": 31.744533187445587,
        "Longitude(deg)": 141.96798924817736,
        "Mean Anomaly(deg)": 132.12312280499802,
        "RAAN(deg)": 99.99886821668862,
        "Satellite Name": "Constellation 1 448",
        "Satellite Number": 448,
        "Semi-Major Axis(m)": 7083131.272910544,
        "Time(s)": 20
    },
    {
        "Altitude(m)": 704554.5505613815,
        "Argument of Periapsis(deg)": 0.001258908131153518,
        "Eccentricity": 0.0,
        "Inclination(deg)": 45.0,
        "Latitude(deg)": 31.71053468809873,
        "Longitude(deg)": 142.0230298599555,
        "Mean Anomaly(deg)": 132.18382394524787,
        "RAAN(deg)": 99.99881162752304,
        "Satellite Name": "Constellation 1 448",
        "Satellite Number": 448,
        "Semi-Major Axis(m)": 7083131.272910544,
        "Time(s)": 21
    },
    {
        "Altitude(m)": 704548.6552725484,
        "Argument of Periapsis(deg)": 0.0013188561373989236,
        "Eccentricity": 0.0,
        "Inclination(deg)": 45.0,
        "Latitude(deg)": 31.67650859790451,
        "Longitude(deg)": 142.07802716711873,
        "Mean Anomaly(deg)": 132.24452508549774,
        "RAAN(deg)": 99.99875503835747,
        "Satellite Name": "Constellation 1 448",
        "Satellite Number": 448,
        "Semi-Major Axis(m)": 7083131.272910544,
        "Time(s)": 22
    },
    {
        "Altitude(m)": 704542.762394023,
        "Argument of Periapsis(deg)": 0.0013788041436443293,
        "Eccentricity": 0.0,
        "Inclination(deg)": 45.0,
        "Latitude(deg)": 31.642454972838085,
        "Longitude(deg)": 142.1329815597657,
        "Mean Anomaly(deg)": 132.30522622574765,
        "RAAN(deg)": 99.99869844919192,
        "Satellite Name": "Constellation 1 448",
        "Satellite Number": 448,
        "Semi-Major Axis(m)": 7083131.272910544,
        "Time(s)": 23
    },
    {
        "Altitude(m)": 704536.8719651385,
        "Argument of Periapsis(deg)": 0.001438752149889735,
        "Eccentricity": 0.0,
        "Inclination(deg)": 45.0,
        "Latitude(deg)": 31.60837386880199,
        "Longitude(deg)": 142.18789292379924,
        "Mean Anomaly(deg)": 132.36592736599758,
        "RAAN(deg)": 99.99864186002634,
        "Satellite Name": "Constellation 1 448",
        "Satellite Number": 448,
        "Semi-Major Axis(m)": 7083131.272910544,
        "Time(s)": 24
    },
    {
        "Altitude(m)": 704530.9840252259,
        "Argument of Periapsis(deg)": 0.0014987001561351404,
        "Eccentricity": 0.0,
        "Inclination(deg)": 45.0,
        "Latitude(deg)": 31.574265341625537,
        "Longitude(deg)": 142.24276131331334,
        "Mean Anomaly(deg)": 132.42662850624745,
        "RAAN(deg)": 99.99858527086077,
        "Satellite Name": "Constellation 1 448",
        "Satellite Number": 448,
        "Semi-Major Axis(m)": 7083131.272910544,
        "Time(s)": 25
    },
    {
        "Altitude(m)": 704525.0986136294,
        "Argument of Periapsis(deg)": 0.001558648162380546,
        "Eccentricity": 0.0,
        "Inclination(deg)": 45.0,
        "Latitude(deg)": 31.540129447064622,
        "Longitude(deg)": 142.29758678249584,
        "Mean Anomaly(deg)": 132.48732964649741,
        "RAAN(deg)": 99.99852868169519,
        "Satellite Name": "Constellation 1 448",
        "Satellite Number": 448,
        "Semi-Major Axis(m)": 7083131.272910544,
        "Time(s)": 26
    },
    {
        "Altitude(m)": 704519.2157696892,
        "Argument of Periapsis(deg)": 0.0016185961686259519,
        "Eccentricity": 0.0,
        "Inclination(deg)": 45.0,
        "Latitude(deg)": 31.505966240802163,
        "Longitude(deg)": 142.352369385627,
        "Mean Anomaly(deg)": 132.54803078674723,
        "RAAN(deg)": 99.99847209252962,
        "Satellite Name": "Constellation 1 448",
        "Satellite Number": 448,
        "Semi-Major Axis(m)": 7083131.272910544,
        "Time(s)": 27
    },
    {
        "Altitude(m)": 704513.3355327547,
        "Argument of Periapsis(deg)": 0.0016785441748713573,
        "Eccentricity": 0.0,
        "Inclination(deg)": 45.0,
        "Latitude(deg)": 31.47177577844764,
        "Longitude(deg)": 142.4071091770791,
        "Mean Anomaly(deg)": 132.6087319269972,
        "RAAN(deg)": 99.99841550336404,
        "Satellite Name": "Constellation 1 448",
        "Satellite Number": 448,
        "Semi-Major Axis(m)": 7083131.272910544,
        "Time(s)": 28
    },
    {
        "Altitude(m)": 704507.4579421764,
        "Argument of Periapsis(deg)": 0.001738492181116763,
        "Eccentricity": 0.0,
        "Inclination(deg)": 45.0,
        "Latitude(deg)": 31.43755811553744,
        "Longitude(deg)": 142.46180621131543,
        "Mean Anomaly(deg)": 132.66943306724707,
        "RAAN(deg)": 99.99835891419848,
        "Satellite Name": "Constellation 1 448",
        "Satellite Number": 448,
        "Semi-Major Axis(m)": 7083131.272910544,
        "Time(s)": 29
    },
    {
        "Altitude(m)": 704501.5830373066,
        "Argument of Periapsis(deg)": 0.0017984401873621684,
        "Eccentricity": 0.0,
        "Inclination(deg)": 45.0,
        "Latitude(deg)": 31.40331330753491,
        "Longitude(deg)": 142.51646037479225,
        "Mean Anomaly(deg)": 132.73013420749695,
        "RAAN(deg)": 99.99830232503292,
        "Satellite Name": "Constellation 1 448",
        "Satellite Number": 448,
        "Semi-Major Axis(m)": 7083131.272910544,
        "Time(s)": 30
    },
    {
        "Altitude(m)": 704495.7108575061,
        "Argument of Periapsis(deg)": 0.0018583881936075745,
        "Eccentricity": 0.0,
        "Inclination(deg)": 45.0,
        "Latitude(deg)": 31.369041409829325,
        "Longitude(deg)": 142.57107205834686,
        "Mean Anomaly(deg)": 132.79083534774693,
        "RAAN(deg)": 99.99824573586734,
        "Satellite Name": "Constellation 1 448",
        "Satellite Number": 448,
        "Semi-Major Axis(m)": 7083131.272910544,
        "Time(s)": 31
    },
    {
        "Altitude(m)": 704489.8414421357,
        "Argument of Periapsis(deg)": 0.0019183361998529795,
        "Eccentricity": 0.0,
        "Inclination(deg)": 45.0,
        "Latitude(deg)": 31.334742477737542,
        "Longitude(deg)": 142.62564114861334,
        "Mean Anomaly(deg)": 132.85153648799678,
        "RAAN(deg)": 99.99818914670178,
        "Satellite Name": "Constellation 1 448",
        "Satellite Number": 448,
        "Semi-Major Axis(m)": 7083131.272910544,
        "Time(s)": 32
    },
    {
        "Altitude(m)": 704483.9748305561,
        "Argument of Periapsis(deg)": 0.0019782842060983856,
        "Eccentricity": 0.0,
        "Inclination(deg)": 45.0,
        "Latitude(deg)": 31.30041656650284,
        "Longitude(deg)": 142.68016770041075,
        "Mean Anomaly(deg)": 132.91223762824666,
        "RAAN(deg)": 99.9981325575362,
        "Satellite Name": "Constellation 1 448",
        "Satellite Number": 448,
        "Semi-Major Axis(m)": 7083131.272910544,
        "Time(s)": 33
    },
    {
        "Altitude(m)": 704478.1110621331,
        "Argument of Periapsis(deg)": 0.0020382322123437906,
        "Eccentricity": 0.0,
        "Inclination(deg)": 45.0,
        "Latitude(deg)": 31.266063731295212,
        "Longitude(deg)": 142.73465176864514,
        "Mean Anomaly(deg)": 132.97293876849653,
        "RAAN(deg)": 99.99807596837063,
        "Satellite Name": "Constellation 1 448",
        "Satellite Number": 448,
        "Semi-Major Axis(m)": 7083131.272910544,
        "Time(s)": 34
    },
    {
        "Altitude(m)": 704472.2501762363,
        "Argument of Periapsis(deg)": 0.002098180218589197,
        "Eccentricity": 0.0,
        "Inclination(deg)": 45.0,
        "Latitude(deg)": 31.231684027211305,
        "Longitude(deg)": 142.78909340830873,
        "Mean Anomaly(deg)": 133.0336399087465,
        "RAAN(deg)": 99.99801937920508,
        "Satellite Name": "Constellation 1 448",
        "Satellite Number": 448,
        "Semi-Major Axis(m)": 7083131.272910544,
        "Time(s)": 35
    },
    {
        "Altitude(m)": 704466.3922122384,
        "Argument of Periapsis(deg)": 0.002158128224834602,
        "Eccentricity": 0.0,
        "Inclination(deg)": 45.0,
        "Latitude(deg)": 31.197277509274535,
        "Longitude(deg)": 142.8434926744787,
        "Mean Anomaly(deg)": 133.0943410489964,
        "RAAN(deg)": 99.9979627900395,
        "Satellite Name": "Constellation 1 448",
        "Satellite Number": 448,
        "Semi-Major Axis(m)": 7083131.272910544,
        "Time(s)": 36
    },
    {
        "Altitude(m)": 704460.5372095074,
        "Argument of Periapsis(deg)": 0.002218076231080008,
        "Eccentricity": 0.0,
        "Inclination(deg)": 45.0,
        "Latitude(deg)": 31.162844232435294,
        "Longitude(deg)": 142.89784945421985,
        "Mean Anomaly(deg)": 133.15504218924627,
        "RAAN(deg)": 99.99790620087393,
        "Satellite Name": "Constellation 1 448",
        "Satellite Number": 448,
        "Semi-Major Axis(m)": 7083131.272910544,
        "Time(s)": 37
    }
]